FLOCK 4G-11             
1 62629U 25009W   26068.45629261  .00012672  00000+0  47740-3 0  9990
2 62629  97.3964 150.6183 0001611 333.5407  26.5750 15.27220677 63680
STARLINK-36503          
1 67411U 26005H   26068.46708490  .00027643  00000+0  10101-2 0  9998
2 67411  42.9979 239.1310 0000710 206.9075 153.1740 15.27585072  8660
