[{"OBJECT_NAME":"FLOCK 4G-11","OBJECT_ID":"2025-009W","EPOCH":"2026-03-09T10:57:03.681504","MEAN_MOTION":15.27220677,"ECCENTRICITY":0.00016118,"INCLINATION":97.3964,"RA_OF_ASC_NODE":150.6183,"ARG_OF_PERICENTER":333.5407,"MEAN_ANOMALY":26.575,"EPHEMERIS_TYPE":0,"CLASSIFICATION_TYPE":"U","NORAD_CAT_ID":62629,"ELEMENT_SET_NO":999,"REV_AT_EPOCH":6368,"BSTAR":0.00047740378,"MEAN_MOTION_DOT":0.00012672,"MEAN_MOTION_DDOT":0},{"OBJECT_NAME":"STARLINK-36503","OBJECT_ID":"2026-005H","EPOCH":"2026-03-09T11:12:36.135360","MEAN_MOTION":15.27585072,"ECCENTRICITY":7.107e-5,"INCLINATION":42.9979,"RA_OF_ASC_NODE":239.131,"ARG_OF_PERICENTER":206.9075,"MEAN_ANOMALY":153.174,"EPHEMERIS_TYPE":0,"CLASSIFICATION_TYPE":"U","NORAD_CAT_ID":67411,"ELEMENT_SET_NO":999,"REV_AT_EPOCH":866,"BSTAR":0.0010101174,"MEAN_MOTION_DOT":0.00027643,"MEAN_MOTION_DDOT":0}]
